{"type": "FeatureCollection", "features": [ {"type": "Feature", "properties": {"norad_id": 43010, "name": "FENGYUN 3D", "group": "weather", "lat": 33.9464469903257, "lon": 152.57287987832984, "alt_km": 823.0602039618379, "timestamp": "2025-12-25T22:42:16.639642+00:00", "meta": {"OBJECT_NAME": "FENGYUN 3D", "OBJECT_ID": "2017-072A", "EPOCH": "2025-12-25T18:38:19.550688", "MEAN_MOTION": 14.19686085, "ECCENTRICITY": 0.0001569, "INCLINATION": 98.9915, "RA_OF_ASC_NODE": 326.2826, "ARG_OF_PERICENTER": 145.7251, "MEAN_ANOMALY": 214.4025, "EPHEMERIS_TYPE": 0, "CLASSIFICATION_TYPE": "U", "NORAD_CAT_ID": 43010, "ELEMENT_SET_NO": 999, "REV_AT_EPOCH": 42038, "BSTAR": -0.00011096, "MEAN_MOTION_DOT": -2.81e-06, "MEAN_MOTION_DDOT": 0}, "tle": {"line1": "1 43010U 17072A   25359.77661517 -.00000281  00000+0 -11096-3 0  9991", "line2": "2 43010  98.9915 326.2826 0001569 145.7251 214.4025 14.19686085420389"}}, "geometry": {"type": "Point", "coordinates": [152.57287987832984, 33.9464469903257]}}, {"type": "Feature", "properties": {"norad_id": 43013, "name": "NOAA 20 (JPSS-1)", "group": "weather", "lat": -68.25887315691656, "lon": -41.14955782760975, "alt_km": 835.2866988793248, "timestamp": "2025-12-25T22:42:16.639653+00:00", "meta": {"OBJECT_NAME": "NOAA 20 (JPSS-1)", "OBJECT_ID": "2017-073A", "EPOCH": "2025-12-25T17:57:32.738112", "MEAN_MOTION": 14.19529147, "ECCENTRICITY": 0.000207, "INCLINATION": 98.7616, "RA_OF_ASC_NODE": 295.9037, "ARG_OF_PERICENTER": 68.6577, "MEAN_ANOMALY": 291.482, "EPHEMERIS_TYPE": 0, "CLASSIFICATION_TYPE": "U", "NORAD_CAT_ID": 43013, "ELEMENT_SET_NO": 999, "REV_AT_EPOCH": 41986, "BSTAR": 6.5762e-05, "MEAN_MOTION_DOT": 9.5e-07, "MEAN_MOTION_DDOT": 0}, "tle": {"line1": "1 43013U 17073A   25359.74829558  .00000095  00000+0  65762-4 0  9994", "line2": "2 43013  98.7616 295.9037 0002070  68.6577 291.4820 14.19529147419860"}}, "geometry": {"type": "Point", "coordinates": [-41.14955782760975, -68.25887315691656]}}, {"type": "Feature", "properties": {"norad_id": 43226, "name": "GOES 17", "group": "weather", "lat": -0.4852248965507947, "lon": -14.204486016761736, "alt_km": 35780.683626450686, "timestamp": "2025-12-25T22:42:16.639673+00:00", "meta": {"OBJECT_NAME": "GOES 17", "OBJECT_ID": "2018-022A", "EPOCH": "2025-12-25T12:38:22.122816", "MEAN_MOTION": 1.00271863, "ECCENTRICITY": 0.0003138, "INCLINATION": 0.4887, "RA_OF_ASC_NODE": 89.0412, "ARG_OF_PERICENTER": 191.0543, "MEAN_ANOMALY": 274.2832, "EPHEMERIS_TYPE": 0, "CLASSIFICATION_TYPE": "U", "NORAD_CAT_ID": 43226, "ELEMENT_SET_NO": 999, "REV_AT_EPOCH": 2868, "BSTAR": 0, "MEAN_MOTION_DOT": -1.61e-06, "MEAN_MOTION_DDOT": 0}, "tle": {"line1": "1 43226U 18022A   25359.52664494 -.00000161  00000+0  00000+0 0  9991", "line2": "2 43226   0.4887  89.0412 0003138 191.0543 274.2832  1.00271863 28688"}}, "geometry": {"type": "Point", "coordinates": [-14.204486016761736, -0.4852248965507947]}}, {"type": "Feature", "properties": {"norad_id": 43491, "name": "FENGYUN 2H", "group": "weather", "lat": 2.487971824760562, "lon": 154.55210476628355, "alt_km": 35786.81360826152, "timestamp": "2025-12-25T22:42:16.639686+00:00", "meta": {"OBJECT_NAME": "FENGYUN 2H", "OBJECT_ID": "2018-050A", "EPOCH": "2025-12-25T19:20:18.558240", "MEAN_MOTION": 1.00270337, "ECCENTRICITY": 0.0002432, "INCLINATION": 2.5824, "RA_OF_ASC_NODE": 81.1909, "ARG_OF_PERICENTER": 166.7726, "MEAN_ANOMALY": 216.0076, "EPHEMERIS_TYPE": 0, "CLASSIFICATION_TYPE": "U", "NORAD_CAT_ID": 43491, "ELEMENT_SET_NO": 999, "REV_AT_EPOCH": 2770, "BSTAR": 0, "MEAN_MOTION_DOT": -1.09e-06, "MEAN_MOTION_DDOT": 0}, "tle": {"line1": "1 43491U 18050A   25359.80577035 -.00000109  00000+0  00000+0 0  9993", "line2": "2 43491   2.5824  81.1909 0002432 166.7726 216.0076  1.00270337 27709"}}, "geometry": {"type": "Point", "coordinates": [154.55210476628355, 2.487971824760562]}}, {"type": "Feature", "properties": {"norad_id": 43689, "name": "METOP-C", "group": "weather", "lat": 15.697737897787057, "lon": -120.02417303652493, "alt_km": 821.3656350734764, "timestamp": "2025-12-25T22:42:16.639697+00:00", "meta": {"OBJECT_NAME": "METOP-C", "OBJECT_ID": "2018-087A", "EPOCH": "2025-12-25T16:52:03.446688", "MEAN_MOTION": 14.21489235, "ECCENTRICITY": 6.02e-05, "INCLINATION": 98.6911, "RA_OF_ASC_NODE": 57.2726, "ARG_OF_PERICENTER": 14.597, "MEAN_ANOMALY": 345.5225, "EPHEMERIS_TYPE": 0, "CLASSIFICATION_TYPE": "U", "NORAD_CAT_ID": 43689, "ELEMENT_SET_NO": 999, "REV_AT_EPOCH": 37018, "BSTAR": 8.148e-05, "MEAN_MOTION_DOT": 1.35e-06, "MEAN_MOTION_DDOT": 0}, "tle": {"line1": "1 43689U 18087A   25359.70281767  .00000135  00000+0  81480-4 0  9999", "line2": "2 43689  98.6911  57.2726 0000602  14.5970 345.5225 14.21489235370183"}}, "geometry": {"type": "Point", "coordinates": [-120.02417303652493, 15.697737897787057]}}, {"type": "Feature", "properties": {"norad_id": 43823, "name": "GEO-KOMPSAT-2A", "group": "weather", "lat": 0.024122441741703325, "lon": -156.4996455194651, "alt_km": 35787.74693439439, "timestamp": "2025-12-25T22:42:16.639709+00:00", "meta": {"OBJECT_NAME": "GEO-KOMPSAT-2A", "OBJECT_ID": "2018-100A", "EPOCH": "2025-12-25T12:13:38.614080", "MEAN_MOTION": 1.00268534, "ECCENTRICITY": 2.51e-05, "INCLINATION": 0.0434, "RA_OF_ASC_NODE": 172.7377, "ARG_OF_PERICENTER": 259.9479, "MEAN_ANOMALY": 333.2359, "EPHEMERIS_TYPE": 0, "CLASSIFICATION_TYPE": "U", "NORAD_CAT_ID": 43823, "ELEMENT_SET_NO": 999, "REV_AT_EPOCH": 2588, "BSTAR": 0, "MEAN_MOTION_DOT": -3.22e-06, "MEAN_MOTION_DDOT": 0}, "tle": {"line1": "1 43823U 18100A   25359.50947470 -.00000322  00000+0  00000+0 0  9996", "line2": "2 43823   0.0434 172.7377 0000251 259.9479 333.2359  1.00268534 25880"}}, "geometry": {"type": "Point", "coordinates": [-156.4996455194651, 0.024122441741703325]}}, {"type": "Feature", "properties": {"norad_id": 44387, "name": "METEOR-M2 2", "group": "weather", "lat": 11.334027135942375, "lon": -21.962680781272365, "alt_km": 812.6694889922728, "timestamp": "2025-12-25T22:42:16.639720+00:00", "meta": {"OBJECT_NAME": "METEOR-M2 2", "OBJECT_ID": "2019-038A", "EPOCH": "2025-12-25T19:16:44.091840", "MEAN_MOTION": 14.24295925, "ECCENTRICITY": 0.0001824, "INCLINATION": 98.8988, "RA_OF_ASC_NODE": 339.6924, "ARG_OF_PERICENTER": 123.6093, "MEAN_ANOMALY": 236.5259, "EPHEMERIS_TYPE": 0, "CLASSIFICATION_TYPE": "U", "NORAD_CAT_ID": 44387, "ELEMENT_SET_NO": 999, "REV_AT_EPOCH": 33661, "BSTAR": 9.9521e-06, "MEAN_MOTION_DOT": -2.3e-07, "MEAN_MOTION_DDOT": 0}, "tle": {"line1": "1 44387U 19038A   25359.80328810 -.00000023  00000+0  99521-5 0  9997", "line2": "2 44387  98.8988 339.6924 0001824 123.6093 236.5259 14.24295925336617"}}, "geometry": {"type": "Point", "coordinates": [-21.962680781272365, 11.334027135942375]}}, {"type": "Feature", "properties": {"norad_id": 47719, "name": "ARKTIKA-M 1", "group": "weather", "lat": 40.06220671457906, "lon": -122.90816064893795, "alt_km": 19788.912172577846, "timestamp": "2025-12-25T22:42:16.639733+00:00", "meta": {"OBJECT_NAME": "ARKTIKA-M 1", "OBJECT_ID": "2021-016A", "EPOCH": "2025-12-25T00:52:45.922368", "MEAN_MOTION": 2.00630507, "ECCENTRICITY": 0.7210339, "INCLINATION": 63.177, "RA_OF_ASC_NODE": 82.3163, "ARG_OF_PERICENTER": 269.1694, "MEAN_ANOMALY": 15.5374, "EPHEMERIS_TYPE": 0, "CLASSIFICATION_TYPE": "U", "NORAD_CAT_ID": 47719, "ELEMENT_SET_NO": 999, "REV_AT_EPOCH": 3529, "BSTAR": 0, "MEAN_MOTION_DOT": -4.3e-07, "MEAN_MOTION_DDOT": 0}, "tle": {"line1": "1 47719U 21016A   25359.03664262 -.00000043  00000+0  00000+0 0  9997", "line2": "2 47719  63.1770  82.3163 7210339 269.1694  15.5374  2.00630507 35296"}}, "geometry": {"type": "Point", "coordinates": [-122.90816064893795, 40.06220671457906]}}, {"type": "Feature", "properties": {"norad_id": 49008, "name": "FENGYUN 3E", "group": "weather", "lat": 57.70488644937545, "lon": -165.59011801719853, "alt_km": 819.8866697512403, "timestamp": "2025-12-25T22:42:16.639744+00:00", "meta": {"OBJECT_NAME": "FENGYUN 3E", "OBJECT_ID": "2021-062A", "EPOCH": "2025-12-25T17:03:44.083296", "MEAN_MOTION": 14.19881016, "ECCENTRICITY": 9.75e-05, "INCLINATION": 98.7478, "RA_OF_ASC_NODE": 0.078, "ARG_OF_PERICENTER": 188.608, "MEAN_ANOMALY": 171.5079, "EPHEMERIS_TYPE": 0, "CLASSIFICATION_TYPE": "U", "NORAD_CAT_ID": 49008, "ELEMENT_SET_NO": 999, "REV_AT_EPOCH": 23196, "BSTAR": 3.576e-06, "MEAN_MOTION_DOT": -3.6e-07, "MEAN_MOTION_DDOT": 0}, "tle": {"line1": "1 49008U 21062A   25359.71092689 -.00000036  00000+0  35760-5 0  9993", "line2": "2 49008  98.7478   0.0780 0000975 188.6080 171.5079 14.19881016231963"}}, "geometry": {"type": "Point", "coordinates": [-165.59011801719853, 57.70488644937545]}}, {"type": "Feature", "properties": {"norad_id": 51850, "name": "GOES 18", "group": "weather", "lat": -0.0007259425160015936, "lon": -61.74414933296706, "alt_km": 35784.39877692836, "timestamp": "2025-12-25T22:42:16.639759+00:00", "meta": {"OBJECT_NAME": "GOES 18", "OBJECT_ID": "2022-021A", "EPOCH": "2025-12-25T12:22:38.764416", "MEAN_MOTION": 1.00271349, "ECCENTRICITY": 4.36e-05, "INCLINATION": 0.0208, "RA_OF_ASC_NODE": 187.5014, "ARG_OF_PERICENTER": 127.4929, "MEAN_ANOMALY": 187.9384, "EPHEMERIS_TYPE": 0, "CLASSIFICATION_TYPE": "U", "NORAD_CAT_ID": 51850, "ELEMENT_SET_NO": 999, "REV_AT_EPOCH": 485, "BSTAR": 0, "MEAN_MOTION_DOT": 1.18e-06, "MEAN_MOTION_DDOT": 0}, "tle": {"line1": "1 51850U 22021A   25359.51572644  .00000118  00000+0  00000+0 0  9992", "line2": "2 51850   0.0208 187.5014 0000436 127.4929 187.9384  1.00271349  4858"}}, "geometry": {"type": "Point", "coordinates": [-61.74414933296706, -0.0007259425160015936]}}]}